{
  "type": "FeatureCollection",
  "features": [
    {
      "type": "Feature",
      "properties": {
        "norad_id": 27954,
        "name": "GALAXY 13 (HORIZONS-1)",
        "group": "intelsat",
        "lat": -0.2204757537621318,
        "lon": 71.32443134190211,
        "alt_km": 35794.31500779533,
        "timestamp": "2025-12-17T09:00:16.812255+00:00",
        "meta_object_name": "GALAXY 13 (HORIZONS-1)",
        "meta_object_id": "2003-044A",
        "meta_epoch": "2025-12-16T16:04:06.760416",
        "meta_mean_motion": 1.00273297,
        "meta_eccentricity": 0.000209,
        "meta_inclination": 0.9462,
        "meta_ra_of_asc_node": 86.4194,
        "meta_arg_of_pericenter": 175.2776,
        "meta_mean_anomaly": 274.8903,
        "meta_ephemeris_type": 0,
        "meta_classification_type": "U",
        "meta_norad_cat_id": 27954,
        "meta_element_set_no": 999,
        "meta_rev_at_epoch": 4474,
        "meta_bstar": 0,
        "meta_mean_motion_dot": 1.56e-06,
        "meta_mean_motion_ddot": 0,
        "tle_line1": "1 27954U 03044A   25350.66952269  .00000156  00000+0  00000+0 0  9998",
        "tle_line2": "2 27954   0.9462  86.4194 0002090 175.2776 274.8903  1.00273297 44741"
      },
      "geometry": {
        "type": "Point",
        "coordinates": [
          71.32443134190211,
          -0.2204757537621318
        ]
      }
    },
    {
      "type": "Feature",
      "properties": {
        "norad_id": 28358,
        "name": "INTELSAT 10-02",
        "group": "intelsat",
        "lat": -0.006755164066496126,
        "lon": -139.6585412121995,
        "alt_km": 35785.44289413996,
        "timestamp": "2025-12-17T09:00:16.812279+00:00",
        "meta_object_name": "INTELSAT 10-02",
        "meta_object_id": "2004-022A",
        "meta_epoch": "2025-12-16T20:11:59.917344",
        "meta_mean_motion": 1.00272395,
        "meta_eccentricity": 9.43e-05,
        "meta_inclination": 0.0232,
        "meta_ra_of_asc_node": 70.5928,
        "meta_arg_of_pericenter": 233.5516,
        "meta_mean_anomaly": 83.6222,
        "meta_ephemeris_type": 0,
        "meta_classification_type": "U",
        "meta_norad_cat_id": 28358,
        "meta_element_set_no": 999,
        "meta_rev_at_epoch": 7872,
        "meta_bstar": 0,
        "meta_mean_motion_dot": 1.4e-07,
        "meta_mean_motion_ddot": 0,
        "tle_line1": "1 28358U 04022A   25350.84166571  .00000014  00000+0  00000+0 0  9990",
        "tle_line2": "2 28358   0.0232  70.5928 0000943 233.5516  83.6222  1.00272395 78723"
      },
      "geometry": {
        "type": "Point",
        "coordinates": [
          -139.6585412121995,
          -0.006755164066496126
        ]
      }
    },
    {
      "type": "Feature",
      "properties": {
        "norad_id": 28626,
        "name": "XM-3 (RHYTHM)",
        "group": "intelsat",
        "lat": -0.1575225512726243,
        "lon": -46.414755646262215,
        "alt_km": 36155.34611313949,
        "timestamp": "2025-12-17T09:00:16.812293+00:00",
        "meta_object_name": "XM-3 (RHYTHM)",
        "meta_object_id": "2005-008A",
        "meta_epoch": "2025-12-16T22:08:40.777152",
        "meta_mean_motion": 0.98950783,
        "meta_eccentricity": 0.00017701,
        "meta_inclination": 0.1853,
        "meta_ra_of_asc_node": 81.8397,
        "meta_arg_of_pericenter": 277.2143,
        "meta_mean_anomaly": 153.3637,
        "meta_ephemeris_type": 0,
        "meta_classification_type": "U",
        "meta_norad_cat_id": 28626,
        "meta_element_set_no": 999,
        "meta_rev_at_epoch": 4079,
        "meta_bstar": 0,
        "meta_mean_motion_dot": -1e-07,
        "meta_mean_motion_ddot": 0,
        "tle_line1": "1 28626U 05008A   25350.92269418 -.00000010  00000+0  00000+0 0  9993",
        "tle_line2": "2 28626   0.1853  81.8397 0001770 277.2143 153.3637  0.98950783 40797"
      },
      "geometry": {
        "type": "Point",
        "coordinates": [
          -46.414755646262215,
          -0.1575225512726243
        ]
      }
    },
    {
      "type": "Feature",
      "properties": {
        "norad_id": 28659,
        "name": "DIRECTV 8",
        "group": "intelsat",
        "lat": 0.028614487335360497,
        "lon": 102.27135451077312,
        "alt_km": 35797.79353640793,
        "timestamp": "2025-12-17T09:00:16.812306+00:00",
        "meta_object_name": "DIRECTV 8",
        "meta_object_id": "2005-019A",
        "meta_epoch": "2025-12-16T16:12:44.660160",
        "meta_mean_motion": 1.00272768,
        "meta_eccentricity": 0.00028694,
        "meta_inclination": 0.0167,
        "meta_ra_of_asc_node": 319.8619,
        "meta_arg_of_pericenter": 314.1922,
        "meta_mean_anomaly": 295.6578,
        "meta_ephemeris_type": 0,
        "meta_classification_type": "U",
        "meta_norad_cat_id": 28659,
        "meta_element_set_no": 999,
        "meta_rev_at_epoch": 7524,
        "meta_bstar": 0,
        "meta_mean_motion_dot": 2.5e-07,
        "meta_mean_motion_ddot": 0,
        "tle_line1": "1 28659U 05019A   25350.67551690  .00000025  00000+0  00000+0 0  9994",
        "tle_line2": "2 28659   0.0167 319.8619 0002869 314.1922 295.6578  1.00272768 75243"
      },
      "geometry": {
        "type": "Point",
        "coordinates": [
          102.27135451077312,
          0.028614487335360497
        ]
      }
    },
    {
      "type": "Feature",
      "properties": {
        "norad_id": 28702,
        "name": "GALAXY 28 (G-28)",
        "group": "intelsat",
        "lat": 2.22588719153288,
        "lon": 132.55949378475307,
        "alt_km": 35795.289211202326,
        "timestamp": "2025-12-17T09:00:16.812318+00:00",
        "meta_object_name": "GALAXY 28 (G-28)",
        "meta_object_id": "2005-022A",
        "meta_epoch": "2025-12-16T19:47:01.643712",
        "meta_mean_motion": 1.00270923,
        "meta_eccentricity": 0.00028933,
        "meta_inclination": 2.8297,
        "meta_ra_of_asc_node": 81.2353,
        "meta_arg_of_pericenter": 190.2574,
        "meta_mean_anomaly": 22.2764,
        "meta_ephemeris_type": 0,
        "meta_classification_type": "U",
        "meta_norad_cat_id": 28702,
        "meta_element_set_no": 999,
        "meta_rev_at_epoch": 5014,
        "meta_bstar": 0,
        "meta_mean_motion_dot": -1.65e-06,
        "meta_mean_motion_ddot": 0,
        "tle_line1": "1 28702U 05022A   25350.82432458 -.00000165  00000+0  00000+0 0  9990",
        "tle_line2": "2 28702   2.8297  81.2353 0002893 190.2574  22.2764  1.00270923 50148"
      },
      "geometry": {
        "type": "Point",
        "coordinates": [
          132.55949378475307,
          2.22588719153288
        ]
      }
    },
    {
      "type": "Feature",
      "properties": {
        "norad_id": 29236,
        "name": "GALAXY 16 (G-16)",
        "group": "intelsat",
        "lat": -0.002413397262226742,
        "lon": 122.29439986890824,
        "alt_km": 35793.95429511738,
        "timestamp": "2025-12-17T09:00:16.812330+00:00",
        "meta_object_name": "GALAXY 16 (G-16)",
        "meta_object_id": "2006-023A",
        "meta_epoch": "2025-12-16T19:43:54.441696",
        "meta_mean_motion": 1.00272373,
        "meta_eccentricity": 0.00024693,
        "meta_inclination": 0.0333,
        "meta_ra_of_asc_node": 221.4079,
        "meta_arg_of_pericenter": 40.9552,
        "meta_mean_anomaly": 20.3221,
        "meta_ephemeris_type": 0,
        "meta_classification_type": "U",
        "meta_norad_cat_id": 29236,
        "meta_element_set_no": 999,
        "meta_rev_at_epoch": 7114,
        "meta_bstar": 0,
        "meta_mean_motion_dot": -1.03e-06,
        "meta_mean_motion_ddot": 0,
        "tle_line1": "1 29236U 06023A   25350.82215789 -.00000103  00000+0  00000+0 0  9993",
        "tle_line2": "2 29236   0.0333 221.4079 0002469  40.9552  20.3221  1.00272373 71142"
      },
      "geometry": {
        "type": "Point",
        "coordinates": [
          122.29439986890824,
          -0.002413397262226742
        ]
      }
    },
    {
      "type": "Feature",
      "properties": {
        "norad_id": 29494,
        "name": "DIRECTV 9S",
        "group": "intelsat",
        "lat": 1.1908714351132497,
        "lon": 120.0702503856078,
        "alt_km": 35796.352310806404,
        "timestamp": "2025-12-17T09:00:16.812342+00:00",
        "meta_object_name": "DIRECTV 9S",
        "meta_object_id": "2006-043A",
        "meta_epoch": "2025-12-16T16:17:59.157888",
        "meta_mean_motion": 1.00271928,
        "meta_eccentricity": 0.00028392,
        "meta_inclination": 1.95,
        "meta_ra_of_asc_node": 83.1705,
        "meta_arg_of_pericenter": 187.3504,
        "meta_mean_anomaly": 318.3309,
        "meta_ephemeris_type": 0,
        "meta_classification_type": "U",
        "meta_norad_cat_id": 29494,
        "meta_element_set_no": 999,
        "meta_rev_at_epoch": 4955,
        "meta_bstar": 0,
        "meta_mean_motion_dot": -9.1e-07,
        "meta_mean_motion_ddot": 0,
        "tle_line1": "1 29494U 06043A   25350.67915692 -.00000091  00000+0  00000+0 0  9990",
        "tle_line2": "2 29494   1.9500  83.1705 0002839 187.3504 318.3309  1.00271928 49559"
      },
      "geometry": {
        "type": "Point",
        "coordinates": [
          120.0702503856078,
          1.1908714351132497
        ]
      }
    }
  ]
}